[{"OBJECT_NAME":"VSP ROSE","OBJECT_ID":"2024-043AC","EPOCH":"2026-03-09T21:48:06.922944","MEAN_MOTION":15.27746075,"ECCENTRICITY":0.00099339,"INCLINATION":97.5443,"RA_OF_ASC_NODE":203.927,"ARG_OF_PERICENTER":232.2702,"MEAN_ANOMALY":127.7637,"EPHEMERIS_TYPE":0,"CLASSIFICATION_TYPE":"U","NORAD_CAT_ID":59124,"ELEMENT_SET_NO":999,"REV_AT_EPOCH":11182,"BSTAR":0.00025731354,"MEAN_MOTION_DOT":6.907e-5,"MEAN_MOTION_DDOT":0},{"OBJECT_NAME":"STARLINK-31895","OBJECT_ID":"2024-097Q","EPOCH":"2026-03-09T00:08:49.742592","MEAN_MOTION":15.27577588,"ECCENTRICITY":9.717e-5,"INCLINATION":42.9976,"RA_OF_ASC_NODE":278.1021,"ARG_OF_PERICENTER":290.4922,"MEAN_ANOMALY":69.5825,"EPHEMERIS_TYPE":0,"CLASSIFICATION_TYPE":"U","NORAD_CAT_ID":59849,"ELEMENT_SET_NO":999,"REV_AT_EPOCH":10181,"BSTAR":-4.849035e-5,"MEAN_MOTION_DOT":-1.596e-5,"MEAN_MOTION_DDOT":0}]
